NORAD_CAT_ID,OBJECT_NAME,OBJECT_TYPE,EPOCH,MEAN_MOTION,ECCENTRICITY,INCLINATION,RA_OF_ASC_NODE,ARG_OF_PERICENTER,MEAN_ANOMALY,BSTAR,MEAN_MOTION_DOT,MEAN_MOTION_DDOT,TLE_LINE0,TLE_LINE1,TLE_LINE2,SEMIMAJOR_AXIS,PERIOD,APOGEE,PERIGEE,DECAYED
53273.0,STARLINK-4051,PAYLOAD,2024-02-11 02:35:42,15.08852345,0.000199,53.2209,345.0321,69.5048,290.6158,7.6948e-07,-2.76e-06,0.0,0 STARLINK-4051,1 53273U 22086AH  24042.10812626 -.00000276  00000-0  76948-6 0  9992,2 53273  53.2209 345.0321 0001990  69.5048 290.6158 15.08852345 86828,6917.843,95.437,541.084,538.331,0.0
53273.0,STARLINK-4051,PAYLOAD,2024-02-12 00:51:06,15.0883848,0.0001619,53.2206,340.8781,73.9763,286.1407,0.00011054,1.472e-05,0.0,0 STARLINK-4051,1 53273U 22086AH  24043.03549010  .00001472  00000-0  11054-3 0  9991,2 53273  53.2206 340.8781 0001619  73.9763 286.1407 15.08838480 86796,6917.885,95.438,540.87,538.63,0.0
53273.0,STARLINK-4051,PAYLOAD,2024-02-12 05:37:15,15.08849013,0.000153,53.2178,339.9758,104.4523,255.6639,8.4856e-05,1.063e-05,0.0,0 STARLINK-4051,1 53273U 22086AH  24043.23420172  .00001063  00000-0  84856-4 0  9997,2 53273  53.2178 339.9758 0001530 104.4523 255.6639 15.08849013 86829,6917.853,95.437,540.776,538.659,0.0
53273.0,STARLINK-4051,PAYLOAD,2024-02-13 02:17:16,15.08844573,0.0001275,53.2197,336.1188,91.8256,268.2882,3.584e-05,2.83e-06,0.0,0 STARLINK-4051,1 53273U 22086AH  24044.09532823  .00000283  00000-0  35840-4 0  9991,2 53273  53.2197 336.1188 0001275  91.8256 268.2882 15.08844573 86954,6917.866,95.437,540.613,538.849,0.0
53273.0,STARLINK-4051,PAYLOAD,2024-02-13 11:49:35,15.08845424,0.0001671,53.2169,334.3277,55.8767,304.2383,3.1132e-06,-2.39e-06,0.0,0 STARLINK-4051,1 53273U 22086AH  24044.49276865 -.00000239  00000-0  31132-5 0  9999,2 53273  53.2169 334.3277 0001671  55.8767 304.2383 15.08845424 87188,6917.864,95.437,540.885,538.573,0.0
53273.0,STARLINK-4051,PAYLOAD,2024-02-13 19:46:31,15.08842253,0.0001501,53.2181,332.8441,92.345,267.7714,-0.00010722,-1.994e-05,0.0,0 STARLINK-4051,1 53273U 22086AH  24044.82397475 -.00001994  00000-0 -10722-3 0  9997,2 53273  53.2181 332.8441 0001501  92.3450 267.7714 15.08842253 87060,6917.874,95.437,540.777,538.7,0.0
53273.0,STARLINK-4051,PAYLOAD,2024-02-13 22:57:17,15.08838901,0.0001329,53.2204,332.2515,71.0226,289.091,-5.4082e-05,-1.148e-05,0.0,0 STARLINK-4051,1 53273U 22086AH  24044.95645687 -.00001148  00000-0 -54082-4 0  9991,2 53273  53.2204 332.2515 0001329  71.0226 289.0910 15.08838901 87256,6917.884,95.438,540.668,538.829,0.0
53273.0,STARLINK-4051,PAYLOAD,2024-02-14 11:40:22,15.08847903,0.0001825,53.2184,329.8714,74.1525,285.9668,2.3884e-05,9.2e-07,0.0,0 STARLINK-4051,1 53273U 22086AH  24045.48636804  .00000092  00000-0  23884-4 0  9992,2 53273  53.2184 329.8714 0001825  74.1525 285.9668 15.08847903 87160,6917.856,95.437,540.984,538.459,0.0
53273.0,STARLINK-4051,PAYLOAD,2024-02-14 18:01:55,15.08834082,0.0001231,53.2196,328.6858,94.8725,265.2408,0.00014098,1.956e-05,0.0,0 STARLINK-4051,1 53273U 22086AH  24045.75133347  .00001956  00000-0  14098-3 0  9992,2 53273  53.2196 328.6858 0001231  94.8725 265.2408 15.08834082 87203,6917.898,95.438,540.615,538.912,0.0
53273.0,STARLINK-4051,PAYLOAD,2024-02-14 22:48:05,15.08832725,0.0001347,53.2204,327.7921,102.2044,257.9099,1.361e-05,-7.1e-07,0.0,0 STARLINK-4051,1 53273U 22086AH  24045.95005982 -.00000071  00000-0  13610-4 0  9995,2 53273  53.2204 327.7921 0001347 102.2044 257.9099 15.08832725 87408,6917.903,95.438,540.699,538.836,0.0
53273.0,STARLINK-4051,PAYLOAD,2024-02-15 03:34:13,15.08847909,0.0001,53.2166,326.8941,75.1546,284.9556,8.4769e-05,1.062e-05,0.0,0 STARLINK-4051,1 53273U 22086AH  24046.14876775  .00001062  00000-0  84769-4 0  9996,2 53273  53.2166 326.8941 0001000  75.1546 284.9556 15.08847909 87260,6917.856,95.437,540.413,539.029,0.0
53273.0,STARLINK-4051,PAYLOAD,2024-02-15 17:52:43,15.088269,0.0001908,53.2183,324.2205,79.0342,281.0865,5.0654e-06,-2.08e-06,0.0,0 STARLINK-4051,1 53273U 22086AH  24046.74494923 -.00000208  00000-0  50654-5 0  9992,2 53273  53.2183 324.2205 0001908  79.0342 281.0865 15.08826900 87357,6917.92,95.438,541.105,538.465,0.0
53273.0,STARLINK-4051,PAYLOAD,2024-02-15 22:38:53,15.08825441,0.000162,53.2187,323.3296,79.8804,280.2371,4.1874e-05,3.78e-06,0.0,0 STARLINK-4051,1 53273U 22086AH  24046.94367026  .00000378  00000-0  41874-4 0  9997,2 53273  53.2187 323.3296 0001620  79.8804 280.2371 15.08825441 87557,6917.925,95.438,540.911,538.669,0.0
53273.0,STARLINK-4051,PAYLOAD,2024-02-16 03:25:01,15.08840707,0.0001289,53.2184,322.4343,84.5397,275.5742,6.8895e-05,8.09e-06,0.0,0 STARLINK-4051,1 53273U 22086AH  24047.14237956  .00000809  00000-0  68895-4 0  9999,2 53273  53.2184 322.4343 0001289  84.5397 275.5742 15.08840707 87414,6917.878,95.438,540.635,538.852,0.0
53273.0,STARLINK-4051,PAYLOAD,2024-02-16 11:21:57,15.08839886,0.000141,53.2188,320.9474,81.2101,278.9051,1.53e-05,-4.4e-07,0.0,0 STARLINK-4051,1 53273U 22086AH  24047.47358229 -.00000044  00000-0  15300-4 0  9997,2 53273  53.2188 320.9474 0001410  81.2101 278.9051 15.08839886 87639,6917.881,95.438,540.721,538.77,0.0
53273.0,STARLINK-4051,PAYLOAD,2024-02-16 22:29:39,15.08842302,0.0001662,53.2186,318.868,85.3455,274.7727,0.00013805,1.91e-05,0.0,0 STARLINK-4051,1 53273U 22086AH  24047.93725859  .00001910  00000-0  13805-3 0  9994,2 53273  53.2186 318.8680 0001662  85.3455 274.7727 15.08842302 87707,6917.873,95.437,540.888,538.589,0.0
53273.0,STARLINK-4051,PAYLOAD,2024-02-17 11:12:44,15.0884558,0.0001367,53.2164,316.4872,85.3033,274.8116,2.3859e-05,9.2e-07,0.0,0 STARLINK-4051,1 53273U 22086AH  24048.46717766  .00000092  00000-0  23859-4 0  9992,2 53273  53.2164 316.4872 0001367  85.3033 274.8116 15.08845580 87618,6917.863,95.437,540.674,538.783,0.0
53273.0,STARLINK-4051,PAYLOAD,2024-02-17 17:34:17,15.08830587,0.0001578,53.217,315.2989,89.9327,270.1846,0.00015243,2.138e-05,0.0,0 STARLINK-4051,1 53273U 22086AH  24048.73214535  .00002138  00000-0  15243-3 0  9998,2 53273  53.2170 315.2989 0001578  89.9327 270.1846 15.08830587 87655,6917.909,95.438,540.866,538.683,0.0
53273.0,STARLINK-4051,PAYLOAD,2024-02-17 22:20:26,15.08831204,0.0001582,53.2169,314.4068,89.9942,270.1231,0.00014143,1.963e-05,0.0,0 STARLINK-4051,1 53273U 22086AH  24048.93086592  .00001963  00000-0  14143-3 0  9993,2 53273  53.2169 314.4068 0001582  89.9942 270.1231 15.08831204 87857,6917.907,95.438,540.867,538.678,0.0
53273.0,STARLINK-4051,PAYLOAD,2024-02-18 03:06:35,15.08845897,0.0001542,53.2183,313.5136,97.209,262.9077,8.3859e-05,1.047e-05,0.0,0 STARLINK-4051,1 53273U 22086AH  24049.12957786  .00001047  00000-0  83859-4 0  9991,2 53273  53.2183 313.5136 0001542  97.2090 262.9077 15.08845897 87716,6917.862,95.437,540.794,538.661,0.0
53273.0,STARLINK-4051,PAYLOAD,2024-02-18 11:03:31,15.08843278,0.0001578,53.218,312.0274,97.9869,262.1302,5.4721e-05,5.83e-06,0.0,0 STARLINK-4051,1 53273U 22086AH  24049.46077979  .00000583  00000-0  54721-4 0  9995,2 53273  53.2180 312.0274 0001578  97.9869 262.1302 15.08843278 87938,6917.87,95.437,540.827,538.644,0.0
53273.0,STARLINK-4051,PAYLOAD,2024-02-18 22:11:12,15.08851742,0.0001513,53.2173,309.9458,93.5458,266.5708,8.2724e-05,1.029e-05,0.0,0 STARLINK-4051,1 53273U 22086AH  24049.92445193  .00001029  00000-0  82724-4 0  9993,2 53273  53.2173 309.9458 0001513  93.5458 266.5708 15.08851742 88006,6917.844,95.437,540.756,538.663,0.0
53273.0,STARLINK-4051,PAYLOAD,2024-02-18 23:46:35,15.08854288,0.0001501,53.2176,309.6477,101.7148,258.4012,7.2197e-05,8.62e-06,0.0,0 STARLINK-4051,1 53273U 22086AH  24049.99068894  .00000862  00000-0  72197-4 0  9996,2 53273  53.2176 309.6477 0001501 101.7148 258.4012 15.08854288 87849,6917.837,95.437,540.74,538.663,0.0
53273.0,STARLINK-4051,PAYLOAD,2024-02-19 20:26:37,15.08824887,0.000126,53.2173,305.7818,100.2979,259.8155,6.028e-05,6.71e-06,0.0,0 STARLINK-4051,1 53273U 22086AH  24050.85182808  .00000671  00000-0  60280-4 0  9993,2 53273  53.2173 305.7818 0001260 100.2979 259.8155 15.08824887 87979,6917.927,95.439,540.663,538.92,0.0
53273.0,STARLINK-4051,PAYLOAD,2024-02-19 23:37:24,15.08826974,0.000125,53.2165,305.1901,82.6804,277.433,-9.9276e-06,-4.46e-06,0.0,0 STARLINK-4051,1 53273U 22086AH  24050.98430981 -.00000446  00000-0 -99276-5 0  9995,2 53273  53.2165 305.1901 0001250  82.6804 277.4330 15.08826974 88168,6917.92,95.438,540.65,538.92,0.0
53273.0,STARLINK-4051,PAYLOAD,2024-02-20 02:48:10,15.08832909,0.0001276,53.2172,304.5939,83.6672,276.4465,-5.315e-05,-1.133e-05,0.0,0 STARLINK-4051,1 53273U 22086AH  24051.11678785 -.00001133  00000-0 -53150-4 0  9991,2 53273  53.2172 304.5939 0001276  83.6672 276.4465 15.08832909 88187,6917.902,95.438,540.65,538.884,0.0
53273.0,STARLINK-4051,PAYLOAD,2024-02-20 21:52:47,15.08846359,0.0001286,53.2177,301.0253,87.6141,272.4998,2.8695e-05,1.69e-06,0.0,0 STARLINK-4051,1 53273U 22086AH  24051.91165647  .00000169  00000-0  28695-4 0  9999,2 53273  53.2177 301.0253 0001286  87.6141 272.4998 15.08846359 88304,6917.861,95.437,540.616,538.836,0.0
53273.0,STARLINK-4051,PAYLOAD,2024-02-21 20:08:11,15.08831741,0.0001298,53.2174,296.862,87.4451,272.669,8.8914e-05,1.127e-05,0.0,0 STARLINK-4051,1 53273U 22086AH  24052.83902572  .00001127  00000-0  88914-4 0  9992,2 53273  53.2174 296.8620 0001298  87.4451 272.6690 15.08831741 88271,6917.906,95.438,540.669,538.873,0.0
53273.0,STARLINK-4051,PAYLOAD,2024-02-21 21:43:34,15.0883166,0.0001301,53.2172,296.5646,85.6223,274.4918,8.8917e-05,1.127e-05,0.0,0 STARLINK-4051,1 53273U 22086AH  24052.90526617  .00001127  00000-0  88917-4 0  9995,2 53273  53.2172 296.5646 0001301  85.6223 274.4918 15.08831660 88459,6917.906,95.438,540.671,538.871,0.0
53273.0,STARLINK-4051,PAYLOAD,2024-02-22 08:51:16,15.08836317,0.0001313,53.2169,294.4853,85.7536,274.3606,3.907e-05,3.34e-06,0.0,0 STARLINK-4051,1 53273U 22086AH  24053.36894659  .00000334  00000-0  39070-4 0  9995,2 53273  53.2169 294.4853 0001313  85.7536 274.3606 15.08836317 88528,6917.892,95.438,540.665,538.848,0.0
